OPTICUBE 04             
1 41851U 16067D   19101.22527542  .00000495  00000-0  48560-4 0  9995
2 41851  97.9132 198.0274 0007265 249.5396 110.5045 14.96784122131679
AEROCUBE 8D             
1 41852U 16067E   19101.22351385  .00000741  00000-0  70191-4 0  9995
2 41852  97.9144 197.8510 0008052 249.2932 110.7426 14.96676026131657
AEROCUBE 8C             
1 41853U 16067F   19101.17791244 -.00000190  00000-0 -11327-4 0  9998
2 41853  97.9138 197.7469 0008743 252.7713 107.2551 14.96637300131647
PROMETHEUS 2-1          
1 41854U 16067G   19101.22155562  .00001074  00000-0  98983-4 0  9995
2 41854  97.9150 197.8955 0008715 249.8468 110.1816 14.96834124131657
PROMETHEUS 2-3          
1 41855U 16067H   19101.22411267  .00001001  00000-0  92635-4 0  9991
2 41855  97.9153 197.9112 0008860 250.6389 109.3874 14.96839317131653
INS-1B                  
1 41954U 17008G   19101.13832114  .00001779  00000-0  76863-4 0  9992
2 41954  97.4062 167.0631 0010079  36.1639 324.0278 15.23762276119369
BGUSAT                  
1 41999U 17008BD  19101.21718848  .00003731  00000-0  14866-3 0  9991
2 41999  97.4119 169.2266 0009336  51.1262 309.0808 15.25811603118858
DIDO-2                  
1 42000U 17008BE  19101.19200104  .00001457  00000-0  63490-4 0  9994
2 42000  97.4075 167.6533 0009833  53.0075 307.2061 15.23765100118777
PEASSS                  
1 42015U 17008BV  19101.13262855  .00001640  00000-0  69197-4 0  9999
2 42015  97.4080 168.4461 0007822  60.2682 299.9333 15.24693081119306
AL-FARABI 1             
1 42016U 17008BW  19100.83091222  .00002356  00000-0  96445-4 0  9995
2 42016  97.4089 168.6113 0007678  61.2885 298.9124 15.25280754119405
NAYIF-1 (EO-88)         
1 42017U 17008BX  19100.81987523  .00002411  00000-0  98535-4 0  9996
2 42017  97.4086 168.6098 0007659  61.5212 298.6796 15.25311505119424
PHOENIX                 
1 42706U 98067LP  19101.68042779  .00278264  42671-4  59704-3 0  9995
2 42706  51.6219 254.1206 0007050 300.0149  60.0160 15.97996545109041
ALTAIR PATHFINDER       
1 42711U 98067LS  19101.72633005  .00043991  00000-0  27888-3 0  9995
2 42711  51.6349 281.1105 0003722 234.0168 126.0488 15.76063662108359
SHARC                   
1 42712U 98067LT  19101.69322396  .00339872  58535-4  72662-3 0  9996
2 42712  51.6256 270.9958 0007679 283.6841  76.3313 15.98014593108720
ZA-AEROSAT              
1 42713U 98067LU  19101.66600000  .00160587  20802-4  47322-3 0  9991
2 42713  51.6289 260.9363 0005234 280.6309  79.4108 15.92308191108615
CSUNSAT1                
1 42715U 98067LW  19101.68824398  .00305526  50500-4  57606-3 0  9991
2 42715  51.6243 255.7303 0007687 293.6688  66.3515 16.00246029108686
NJUST-1                 
1 42722U 98067MB  19101.71302199  .00101138  00000-0  39903-3 0  9992
2 42722  51.6362 267.1756 0003314 249.1328 214.8018 15.86024921107602
NSIGHT                  
1 42726U 98067MF  19101.79680040  .00027683  00000-0  24247-3 0  9995
2 42726  51.6370 295.3337 0004824 268.4592  91.5852 15.68648576107151
SNUSAT-1B               
1 42727U 98067MG  19089.91797841  .06519165  12339-4  59073-3 0  9997
2 42727  51.6087 308.8243 0009316 268.9251  91.0707 16.37980460105869
BEEAGLESAT              
1 42736U 98067MR  19101.64425573  .00447741  10359-3  64431-3 0  9999
2 42736  51.6232 253.8200 0009593 303.9213  56.0886 16.04714575107595
UCLSAT                  
1 42765U 17036A   19100.92877261  .00001784  00000-0  79691-4 0  9990
2 42765  97.3588 160.3861 0013236 109.4352 250.8316 15.22566466100593
LITUANICASAT-2          
1 42768U 17036D   19101.69609236  .00003378  00000-0  14821-3 0  9997
2 42768  97.3613 160.7093 0017077  99.2765 261.0403 15.22509495 99965
AALTO-1                 
1 42775U 17036L   19101.12361586  .00001167  00000-0  55208-4 0  9995
2 42775  97.3575 159.4805 0015781 100.1629 260.1388 15.21217556 99782
URSA MAIOR              
1 42776U 17036M   19101.15589819  .00001231  00000-0  57879-4 0  9998
2 42776  97.3584 159.6380 0015615 100.1071 260.1927 15.21341012 99795
COMPASS 2               
1 42777U 17036N   19101.65410846  .00002604  00000-0  11458-3 0  9994
2 42777  97.3614 161.1173 0014449 100.2627 260.0239 15.22659605 99910
DIAMOND RED             
1 42783U 17036U   19101.34448887  .00001567  00000-0  71417-4 0  9992
2 42783  97.3588 160.4496 0013934 108.9627 251.3120 15.22051245 99851
PEGASUS                 
1 42784U 17036V   19101.33631107  .00001781  00000-0  80115-4 0  9994
2 42784  97.3592 160.6285 0013799 108.6600 251.6135 15.22325950 99869
DIAMOND GREEN           
1 42785U 17036W   19101.14608440  .00001440  00000-0  65858-4 0  9997
2 42785  97.3591 160.2774 0013826 110.0911 250.1815 15.22049270 99813
DIAMOND BLUE            
1 42786U 17036X   19100.15894371  .00001311  00000-0  60229-4 0  9992
2 42786  97.3592 159.3103 0013617 113.3218 246.9452 15.22045028 99664
NUDTSAT                 
1 42787U 17036Y   19101.37557872  .00001618  00000-0  71259-4 0  9995
2 42787  97.3635 161.2364 0012177  99.8468 260.4149 15.23194961 99744
SUCHAI                  
1 42788U 17036Z   19101.16420655  .00002177  00000-0  96172-4 0  9993
2 42788  97.3591 160.7136 0013444 108.7608 251.5089 15.22708950 99923
SKCUBE                  
1 42789U 17036AA  19100.91289436  .00002037  00000-0  90399-4 0  9996
2 42789  97.3588 160.4234 0013296 109.5222 250.7452 15.22621050 99809
VZLUSAT-1               
1 42790U 17036AB  19100.83692766  .00002716  00000-0  11751-3 0  9991
2 42790  97.3600 160.7109 0012888 109.3313 250.9319 15.23209206 99816
ROBUSTA-1B              
1 42792U 17036AD  19101.11397905  .00001792  00000-0  79546-4 0  9992
2 42792  97.3592 160.7503 0012825 109.4006 250.8618 15.22784608 99855
CICERO 6                
1 42793U 17036AE  19101.68286907  .00001359  00000-0  61663-4 0  9994
2 42793  97.3576 161.1472 0012046 108.6996 251.5550 15.22441373100004
D-SAT                   
1 42794U 17036AF  19101.08978262  .00000349  00000-0  35740-4 0  9996
2 42794  97.5483 148.7771 0126886  11.0334 349.3620 14.91056105 98110
TOKI                    
1 42820U 98067MU  19101.71104011  .00327883  57088-4  59200-3 0  9995
2 42820  51.6246 258.8502 0007392 292.1665  67.8561 16.00987449100994
MAZAALAI (NUMSAT-1)     
1 42822U 98067MW  19101.70798492  .00247937  35880-4  55310-3 0  9993
2 42822  51.6269 261.1560 0006680 289.0979  70.9307 15.97328427100942
BRAC ONNESHA            
1 42823U 98067MX  19101.69241218  .00291590  46412-4  58332-3 0  9995
2 42823  51.6241 260.2598 0007779 287.4221  72.5938 15.99218247100955
NIGERIAEDUSAT-1         
1 42824U 98067MY  19101.76496534  .00232632  32698-4  53875-3 0  9997
2 42824  51.6273 261.6056 0007253 283.9658  76.0544 15.96659022100934
CORVUS BC2              
1 42846U 17042X   19101.20310023  .00000284  00000-0  33322-4 0  9992
2 42846  97.5733 357.9064 0008158 286.7551  73.2773 14.91944633 94804
CORVUS BC1              
1 42847U 17042Y   19101.36211580  .00000059  00000-0  11146-4 0  9998
2 42847  97.5733 358.1544 0007738 285.7278  74.3088 14.92044369 94820
SILU-1 (SILKROAD 1)     
1 42903U 17021F   19100.23204088  .02436429  89480-5  50117-3 0  9998
2 42903  42.7609 296.2424 0011156 293.9683  66.9737 16.29954320 97039
MIRATA                  
1 43015U 17073C   19101.21428314  .00002921  00000-0  23205-3 0  9997
2 43015  97.7187  25.0978 0256651  21.2428 339.9211 14.78826671 75177
MAKERSAT 0              
1 43016U 17073D   19101.35322177  .00001889  00000-0  15165-3 0  9991
2 43016  97.7222  25.4241 0258628  21.0402 340.1219 14.78625713 75188
ASTERIA                 
1 43020U 98067NH  19101.78539669  .00029334  00000-0  26511-3 0  9993
2 43020  51.6422 305.9140 0002241 220.1005 139.9826 15.67854301 79196
DELLINGR (RBLE)         
1 43021U 98067NJ  19101.79161057  .00012916  00000-0  15100-3 0  9997
2 43021  51.6389 314.8647 0002527 192.3468 167.7465 15.61962457 79071
AEROCUBE 7B (OCSD B)    
1 43042U 17071F   19100.95651804  .00005465  00000-0  14136-3 0  9996
2 43042  51.6391  28.8586 0003752 264.6892  95.3665 15.40702344 75489
AEROCUBE 7C (OCSD C)    
1 43043U 17071G   19101.41064662  .00005735  00000-0  14765-3 0  9997
2 43043  51.6392  26.6540 0004112 270.9565  89.0949 15.40747991 75522
CHEFSAT                 
1 43044U 17071H   19101.18715697  .00011458  00000-0  26424-3 0  9997
2 43044  51.6400  23.7548 0003825 268.2483  91.8065 15.43037097 75542
ASGARDIA 1              
1 43049U 17071N   19101.75737831  .00004724  00000-0  12283-3 0  9995
2 43049  51.6400  24.4918 0001723 301.9236  58.1581 15.40877304 75574
ISARA                   
1 43050U 17071P   19100.98704426  .00009970  00000-0  23468-3 0  9990
2 43050  51.6392  25.3852 0001447 292.3822  67.7011 15.42586170 75495
PROPCUBE 2 (FAUNA)      
1 43052U 17071R   19101.70986114  .00006068  00000-0  15373-3 0  9990
2 43052  51.6399  24.1913 0001613 296.2164  63.8655 15.41125530 75574
CORVUS BC3              
1 43118U 18004H   19101.72622979  .00001228  00000-0  55662-4 0  9997
2 43118  97.4926 169.2892 0011856 125.3344 234.9003 15.22727075 69134
MICROMAS-2A             
1 43131U 18004W   19101.12959783  .00003018  00000-0  12800-3 0  9997
2 43131  97.4943 169.2338 0010941 129.0955 231.1256 15.23851679 69077
CICERO 7                
1 43143U 18004AJ  19101.15998555  .00002421  00000-0  10279-3 0  9998
2 43143  97.4931 169.4737 0008875 135.6533 224.5416 15.24033096 69092
GOMX-4B                 
1 43196U 18015E   19101.80873072  .00000685  00000-0  31245-4 0  9993
2 43196  97.3810 230.3588 0018689 181.4611 178.6574 15.23869125 66008
GOMX-4A                 
1 43197U 18015F   19101.74887453  .00000677  00000-0  30799-4 0  9999
2 43197  97.3803 230.3189 0019270 181.6786 288.2706 15.23959193 66000
1KUNS-PF                
1 43466U 98067NP  19101.84456412  .00026105  00000-0  27925-3 0  9991
2 43466  51.6382 318.2044 0001245 177.4188 182.6814 15.63690442 52298
